NORAD_CAT_ID,OBJECT_NAME,OBJECT_TYPE,EPOCH,MEAN_MOTION,ECCENTRICITY,INCLINATION,RA_OF_ASC_NODE,ARG_OF_PERICENTER,MEAN_ANOMALY,BSTAR,MEAN_MOTION_DOT,MEAN_MOTION_DDOT,TLE_LINE0,TLE_LINE1,TLE_LINE2,SEMIMAJOR_AXIS,PERIOD,APOGEE,PERIGEE,DECAYED
55758.0,STARLINK-5072,PAYLOAD,2024-01-26 09:55:57,14.98320015,0.0002812,70.0007,34.0505,247.7987,112.2874,-9.4395e-05,-1.219e-05,0.0,0 STARLINK-5072,1 55758U 23028T   24026.41386492 -.00001219  00000-0 -94395-4 0  9995,2 55758  70.0007  34.0505 0002812 247.7987 112.2874 14.98320015 50216,6950.224,96.108,574.043,570.134,0.0
55758.0,STARLINK-5072,PAYLOAD,2024-01-27 03:33:26,14.98334256,0.0003043,70.0,32.1961,267.3631,92.718,-0.00022889,-2.823e-05,0.0,0 STARLINK-5072,1 55758U 23028T   24027.14821826 -.00002823  00000-0 -22889-3 0  9991,2 55758  70.0000  32.1961 0003043 267.3631  92.7180 14.98334256 50321,6950.18,96.107,574.16,569.93,0.0
55758.0,STARLINK-5072,PAYLOAD,2024-01-27 09:57:57,14.98340886,0.0002875,70.0003,31.5238,266.0488,94.0342,-0.00025747,-3.165e-05,0.0,0 STARLINK-5072,1 55758U 23028T   24027.41525441 -.00003165  00000-0 -25747-3 0  9991,2 55758  70.0003  31.5238 0002875 266.0488  94.0342 14.98340886 50367,6950.159,96.106,574.022,570.026,0.0
55758.0,STARLINK-5072,PAYLOAD,2024-01-28 05:11:37,14.98296686,0.0003011,70.0002,29.5055,267.0698,93.0116,-0.00015818,-1.978e-05,0.0,0 STARLINK-5072,1 55758U 23028T   24028.21640591 -.00001978  00000-0 -15818-3 0  9992,2 55758  70.0002  29.5055 0003011 267.0698  93.0116 14.98296686 50486,6950.296,96.109,574.254,570.068,0.0
55758.0,STARLINK-5072,PAYLOAD,2024-01-28 10:00:02,14.98294874,0.0002755,70.0005,28.9995,263.197,96.8876,-0.00016701,-2.083e-05,0.0,0 STARLINK-5072,1 55758U 23028T   24028.41669151 -.00002083  00000-0 -16701-3 0  9997,2 55758  70.0005  28.9995 0002755 263.1970  96.8876 14.98294874 50514,6950.302,96.109,574.081,570.252,0.0
55758.0,STARLINK-5072,PAYLOAD,2024-01-29 03:37:29,14.98322247,0.0002768,70.0003,27.1472,260.0744,100.0102,1.178e-05,4.8e-07,0.0,0 STARLINK-5072,1 55758U 23028T   24029.15103791  .00000048  00000-0  11780-4 0  9992,2 55758  70.0003  27.1472 0002768 260.0744 100.0102 14.98322247 50620,6950.217,96.107,574.006,570.158,0.0
55758.0,STARLINK-5072,PAYLOAD,2024-01-29 10:01:59,14.98359414,0.0002897,70.0006,26.4743,256.0998,103.9839,0.00042608,4.998e-05,0.0,0 STARLINK-5072,1 55758U 23028T   24029.41804462  .00004998  00000-0  42608-3 0  9994,2 55758  70.0006  26.4743 0002897 256.0998 103.9839 14.98359414 50664,6950.102,96.105,573.98,569.953,0.0
55758.0,STARLINK-5072,PAYLOAD,2024-01-29 22:51:04,14.98329455,0.0001181,70.0039,25.1297,246.1125,113.991,0.00055264,6.507e-05,0.0,0 STARLINK-5072,1 55758U 23028T   24029.95213755  .00006507  00000-0  55264-3 0  9992,2 55758  70.0039  25.1297 0001181 246.1125 113.9910 14.98329455 50749,6950.195,96.107,572.88,571.239,0.0
55758.0,STARLINK-5072,PAYLOAD,2024-01-30 03:39:30,14.98305751,0.0002529,70.0008,24.6223,264.5613,95.5257,0.0002051,2.354e-05,0.0,0 STARLINK-5072,1 55758U 23028T   24030.15244174  .00002354  00000-0  20510-3 0  9997,2 55758  70.0008  24.6223 0002529 264.5613  95.5257 14.98305751 50776,6950.268,96.109,573.891,570.375,0.0
55758.0,STARLINK-5072,PAYLOAD,2024-01-30 08:27:55,14.98309525,0.0002196,70.0016,24.117,256.3707,103.7207,0.0002474,2.859e-05,0.0,0 STARLINK-5072,1 55758U 23028T   24030.35272089  .00002859  00000-0  24740-3 0  9994,2 55758  70.0016  24.1170 0002196 256.3707 103.7207 14.98309525 50808,6950.256,96.108,573.647,570.595,0.0
55758.0,STARLINK-5072,PAYLOAD,2024-01-30 22:53:06,14.98336335,0.0002695,70.0,22.6006,243.1333,116.955,7.6133e-05,8.16e-06,0.0,0 STARLINK-5072,1 55758U 23028T   24030.95354697  .00000816  00000-0  76133-4 0  9991,2 55758  70.0000  22.6006 0002695 243.1333 116.9550 14.98336335 50890,6950.173,96.107,573.911,570.165,0.0
55758.0,STARLINK-5072,PAYLOAD,2024-01-31 03:41:30,14.98344864,0.0002789,69.9998,22.097,256.0663,104.0186,3.7438e-05,3.54e-06,0.0,0 STARLINK-5072,1 55758U 23028T   24031.15382255  .00000354  00000-0  37438-4 0  9997,2 55758  69.9998  22.0970 0002789 256.0663 104.0186 14.98344864 50923,6950.147,96.106,573.95,570.074,0.0
55758.0,STARLINK-5072,PAYLOAD,2024-01-31 08:29:53,14.98348132,0.0002627,70.0001,21.591,256.4788,103.6078,9.7059e-05,1.066e-05,0.0,0 STARLINK-5072,1 55758U 23028T   24031.35409675  .00001066  00000-0  97059-4 0  9991,2 55758  70.0001  21.5910 0002627 256.4788 103.6078 14.98348132 50952,6950.137,96.106,573.828,570.176,0.0
55758.0,STARLINK-5072,PAYLOAD,2024-01-31 22:55:07,14.98328027,0.0002297,70.0022,20.0793,251.2845,108.8064,0.00014897,1.685e-05,0.0,0 STARLINK-5072,1 55758U 23028T   24031.95494232  .00001685  00000-0  14897-3 0  9995,2 55758  70.0022  20.0793 0002297 251.2845 108.8064 14.98328027 51042,6950.199,96.107,573.66,570.468,0.0
55758.0,STARLINK-5072,PAYLOAD,2024-02-01 03:43:31,14.98326114,0.0002508,70.0008,19.5719,251.1685,108.9202,4.0661e-05,3.92e-06,0.0,0 STARLINK-5072,1 55758U 23028T   24032.15522657  .00000392  00000-0  40661-4 0  9994,2 55758  70.0008  19.5719 0002508 251.1685 108.9202 14.98326114 51076,6950.205,96.107,573.813,570.327,0.0
55758.0,STARLINK-5072,PAYLOAD,2024-02-01 08:31:55,14.98326393,0.00025,70.0009,19.067,249.8049,110.2841,3.9569e-05,3.79e-06,0.0,0 STARLINK-5072,1 55758U 23028T   24032.35550659  .00000379  00000-0  39569-4 0  9999,2 55758  70.0009  19.0670 0002500 249.8049 110.2841 14.98326393 51106,6950.204,96.107,573.807,570.331,0.0
55758.0,STARLINK-5072,PAYLOAD,2024-02-02 03:45:31,14.98337298,0.0002445,70.0013,17.0484,243.5082,116.5827,-5.2514e-05,-7.2e-06,0.0,0 STARLINK-5072,1 55758U 23028T   24033.15661977 -.00000720  00000-0 -52514-4 0  9991,2 55758  70.0013  17.0484 0002445 243.5082 116.5827 14.98337298 51220,6950.17,96.107,573.735,570.336,0.0
55758.0,STARLINK-5072,PAYLOAD,2024-02-02 08:33:56,14.9833681,0.0002464,70.0009,16.5428,252.7267,107.3623,-6.2511e-05,-8.39e-06,0.0,0 STARLINK-5072,1 55758U 23028T   24033.35689982 -.00000839  00000-0 -62511-4 0  9998,2 55758  70.0009  16.5428 0002464 252.7267 107.3623 14.98336810 51259,6950.172,96.107,573.749,570.324,0.0
55758.0,STARLINK-5072,PAYLOAD,2024-02-03 03:47:33,14.98327818,0.0002524,70.0007,14.5233,255.1687,104.9192,3.9887e-05,3.83e-06,0.0,0 STARLINK-5072,1 55758U 23028T   24034.15802128  .00000383  00000-0  39887-4 0  9998,2 55758  70.0007  14.5233 0002524 255.1687 104.9192 14.98327818 51374,6950.2,96.107,573.819,570.31,0.0
55758.0,STARLINK-5072,PAYLOAD,2024-02-03 08:35:57,14.98328678,0.0002515,70.0008,14.0186,255.0598,105.0283,4.8205e-05,4.82e-06,0.0,0 STARLINK-5072,1 55758U 23028T   24034.35830097  .00000482  00000-0  48205-4 0  9990,2 55758  70.0008  14.0186 0002515 255.0598 105.0283 14.98328678 51409,6950.197,96.107,573.81,570.314,0.0
55758.0,STARLINK-5072,PAYLOAD,2024-02-04 03:49:33,14.98333374,0.0002513,70.0009,11.999,257.5468,102.5409,3.2114e-05,2.9e-06,0.0,0 STARLINK-5072,1 55758U 23028T   24035.15941769  .00000290  00000-0  32114-4 0  9997,2 55758  70.0009  11.9990 0002513 257.5468 102.5409 14.98333374 51524,6950.182,96.107,573.794,570.301,0.0
55758.0,STARLINK-5072,PAYLOAD,2024-02-04 08:37:57,14.98335821,0.0002476,70.001,11.4938,258.2505,101.8376,6.1716e-05,6.44e-06,0.0,0 STARLINK-5072,1 55758U 23028T   24035.35969515  .00000644  00000-0  61716-4 0  9991,2 55758  70.0010  11.4938 0002476 258.2505 101.8376 14.98335821 51558,6950.175,96.107,573.761,570.319,0.0
55758.0,STARLINK-5072,PAYLOAD,2024-02-04 23:03:10,14.98327373,0.0002276,70.0016,9.9788,257.6487,102.4417,2.0107e-05,1.47e-06,0.0,0 STARLINK-5072,1 55758U 23028T   24035.96054107  .00000147  00000-0  20107-4 0  9997,2 55758  70.0016   9.9788 0002276 257.6487 102.4417 14.98327373 51645,6950.201,96.107,573.648,570.484,0.0
55758.0,STARLINK-5072,PAYLOAD,2024-02-05 03:51:35,14.98325998,0.000234,70.0016,9.4741,254.32,105.7701,-1.1411e-06,-1.06e-06,0.0,0 STARLINK-5072,1 55758U 23028T   24036.16082259 -.00000106  00000-0 -11411-5 0  9995,2 55758  70.0016   9.4741 0002340 254.3200 105.7701 14.98325998 51674,6950.205,96.107,573.697,570.444,0.0
55758.0,STARLINK-5072,PAYLOAD,2024-02-05 07:03:51,14.98325401,0.0002354,70.0016,9.1376,254.6766,105.4133,-9.1329e-06,-2.02e-06,0.0,0 STARLINK-5072,1 55758U 23028T   24036.29434370 -.00000202  00000-0 -91329-5 0  9997,2 55758  70.0016   9.1376 0002354 254.6766 105.4133 14.98325401 51697,6950.207,96.107,573.708,570.436,0.0
55758.0,STARLINK-5072,PAYLOAD,2024-02-05 23:05:11,14.98334954,0.0002389,70.0017,7.4546,254.3888,105.7008,2.2223e-05,1.72e-06,0.0,0 STARLINK-5072,1 55758U 23028T   24036.96193652  .00000172  00000-0  22223-4 0  9996,2 55758  70.0017   7.4546 0002389 254.3888 105.7008 14.98334954 51796,6950.178,96.107,573.703,570.382,0.0
55758.0,STARLINK-5072,PAYLOAD,2024-02-06 03:53:35,14.98334998,0.0002394,70.0017,6.9497,253.426,106.6636,2.3294e-05,1.85e-06,0.0,0 STARLINK-5072,1 55758U 23028T   24037.16221589  .00000185  00000-0  23294-4 0  9993,2 55758  70.0017   6.9497 0002394 253.4260 106.6636 14.98334998 51824,6950.177,96.107,573.706,570.379,0.0
55758.0,STARLINK-5072,PAYLOAD,2024-02-06 08:41:59,14.98337173,0.0002379,70.0018,6.4447,251.632,108.4581,5.0083e-05,5.05e-06,0.0,0 STARLINK-5072,1 55758U 23028T   24037.36249316  .00000505  00000-0  50083-4 0  9995,2 55758  70.0018   6.4447 0002379 251.6320 108.4581 14.98337173 51855,6950.171,96.107,573.689,570.382,0.0
55758.0,STARLINK-5072,PAYLOAD,2024-02-07 03:55:36,14.98329931,0.0002344,70.0021,4.425,246.6723,113.4189,8.9043e-05,9.7e-06,0.0,0 STARLINK-5072,1 55758U 23028T   24038.16361538  .00000970  00000-0  89043-4 0  9999,2 55758  70.0021   4.4250 0002344 246.6723 113.4189 14.98329931 51978,6950.193,96.107,573.687,570.429,0.0
55758.0,STARLINK-5072,PAYLOAD,2024-02-07 07:07:52,14.98328616,0.0002484,70.0013,4.0859,266.245,93.8425,0.00013225,1.485e-05,0.0,0 STARLINK-5072,1 55758U 23028T   24038.29713577  .00001485  00000-0  13225-3 0  9997,2 55758  70.0013   4.0859 0002484 266.2450  93.8425 14.98328616 51995,6950.197,96.107,573.789,570.336,0.0
